QZS-1R                  
1 49336U 21096A   23191.78015191 -.00000308  00000+0  00000+0 0  9991
2 49336  35.2407  95.7725 0757934 271.8009 334.9795  1.00249251  6252
